{"type": "FeatureCollection", "features": [{"type": "Feature", "properties": {"NUTS_ID": "BE31", "LEVL_CODE": 2, "CNTR_CODE": "BE", "NAME_LATN": "Prov. Brabant Wallon", "NUTS_NAME": "Prov. Brabant Wallon", "MOUNT_TYPE": 0, "URBN_TYPE": 0, "COAST_TYPE": 0, "NAME_ENGL": "Belgium", "NAME_FREN": "Belgique", "ISO3_CODE": "BEL", "SVRG_UN": "UN Member State", "CAPT": "Brussels", "EU_STAT": "T", "EFTA_STAT": "F", "CC_STAT": "F", "NAME_GERM": "Belgien"}, "geometry": {"type": "MultiPolygon", "coordinates": [[[[5.019566500000053, 50.750761999000076], [4.983341, 50.642242499000076], [4.671892992000039, 50.59673421300005], [4.577538, 50.54228599900006], [4.500592175000065, 50.530874235000056], [4.247219500000028, 50.596118999000055], [4.18121953800005, 50.644498198000065], [4.10762551800002, 50.645292821000055], [4.106423606000021, 50.67628685500006], [4.105211423000071, 50.70754573000005], [4.272625355000059, 50.69617141400005], [4.597269, 50.76353449900006], [4.628439431000061, 50.74957404400004], [4.663417674000073, 50.788489982000044], [4.758841337000035, 50.802515321000044], [5.019566500000053, 50.750761999000076]]]]}}, {"type": "Feature", "properties": {"NUTS_ID": "BE32", "LEVL_CODE": 2, "CNTR_CODE": "BE", "NAME_LATN": "Prov. Hainaut", "NUTS_NAME": "Prov. Hainaut", "MOUNT_TYPE": 0, "URBN_TYPE": 0, "COAST_TYPE": 0, "NAME_ENGL": "Belgium", "NAME_FREN": "Belgique", "ISO3_CODE": "BEL", "SVRG_UN": "UN Member State", "CAPT": "Brussels", "EU_STAT": "T", "EFTA_STAT": "F", "CC_STAT": "F", "NAME_GERM": "Belgien"}, "geometry": {"type": "MultiPolygon", "coordinates": [[[[3.719250698000053, 50.77502437600003], [3.775676500000031, 50.747892499000045], [3.815390500000035, 50.750724999000056], [3.895736500000055, 50.73294449900004], [3.93947815000007, 50.691163808000056], [4.105211423000071, 50.70754573000005], [4.106423606000021, 50.67628685500006], [4.10762551800002, 50.645292821000055], [4.18121953800005, 50.644498198000065], [4.247219500000028, 50.596118999000055], [4.500592175000065, 50.530874235000056], [4.577538, 50.54228599900006], [4.607538956000042, 50.411931432000074], [4.588662500000055, 50.321315999000035], [4.474987, 50.32760999900006], [4.331408906000036, 50.25790703200005], [4.384901812000066, 50.21875380300003], [4.378275048000035, 50.14747612900004], [4.432494, 49.94161599900008], [4.233133, 49.95782849900007], [4.140853, 49.97875999900003], [4.20852919500004, 50.07878774900007], [4.148795006000057, 50.15055539200006], [4.198192552000023, 50.250051176000056], [4.055430664000028, 50.34075847100007], [4.027774500000021, 50.35833049900003], [3.894067842000027, 50.33253618500004], [3.770233474000065, 50.350434464000045], [3.707888852000053, 50.32236710800004], [3.666697997000028, 50.35575120800007], [3.65551, 50.46173549900004], [3.615081500000031, 50.490398999000035], [3.523995140000068, 50.49747709600007], [3.490983560000075, 50.52715653800004], [3.385811585000056, 50.495033195000076], [3.303302081000027, 50.52242288200006], [3.245294, 50.713009499000066], [3.195384601000058, 50.75535462300007], [3.296718818000045, 50.75089163300004], [3.324118, 50.72230899900006], [3.460305500000061, 50.76589899900006], [3.541272500000048, 50.733700499000065], [3.629244429000039, 50.72643333500008], [3.719250698000053, 50.77502437600003]]], [[[3.018708500000059, 50.773532999000054], [2.908104693000041, 50.70174149200005], [2.863276, 50.70834349900008], [2.852976651000063, 50.75047708000005], [2.941700869000044, 50.769000841000036], [2.95436782500002, 50.79747689100003], [3.00188150300005, 50.805183783000075], [3.018708500000059, 50.773532999000054]]]]}}, {"type": "Feature", "properties": {"NUTS_ID": "BE33", "LEVL_CODE": 2, "CNTR_CODE": "BE", "NAME_LATN": "Prov. Liège", "NUTS_NAME": "Prov. Liège", "MOUNT_TYPE": 0, "URBN_TYPE": 0, "COAST_TYPE": 0, "NAME_ENGL": "Belgium", "NAME_FREN": "Belgique", "ISO3_CODE": "BEL", "SVRG_UN": "UN Member State", "CAPT": "Brussels", "EU_STAT": "T", "EFTA_STAT": "F", "CC_STAT": "F", "NAME_GERM": "Belgien"}, "geometry": {"type": "MultiPolygon", "coordinates": [[[[5.769941927000048, 50.74665214700008], [5.819052, 50.71455749900008], [5.887123837000047, 50.71852777600003], [5.892073, 50.75523749900003], [6.020999, 50.75429549900008], [6.118585524000025, 50.71241445000004], [6.183820236000031, 50.63842684100007], [6.256062154000062, 50.622096697000075], [6.189312500000028, 50.56609399900003], [6.192200500000069, 50.521055499000056], [6.315556, 50.49704249900003], [6.367783069000041, 50.44517195200007], [6.354699608000033, 50.37910438400007], [6.405028500000071, 50.32330849900006], [6.314800928000068, 50.31306102000008], [6.193273631000068, 50.24050441600008], [6.137662500000033, 50.12995149900007], [6.02489950000006, 50.18277949900005], [6.011873541000057, 50.291266850000056], [5.980197500000031, 50.32985299900008], [5.875517068000022, 50.34120093300004], [5.836915979000025, 50.26916694800008], [5.721549500000037, 50.26198949900004], [5.712898591000055, 50.35121318400007], [5.675838500000054, 50.36851499900007], [5.425083758000028, 50.41885468500004], [5.393235, 50.37936399900008], [5.302947242000073, 50.37396019200003], [5.221259500000031, 50.41729749900003], [5.202831175000028, 50.466380067000046], [5.063287081000055, 50.536572112000044], [5.028495, 50.58882149900006], [4.983341, 50.642242499000076], [5.019566500000053, 50.750761999000076], [5.103480500000046, 50.70906399900008], [5.236913, 50.727272999000036], [5.377119783000069, 50.745477433000076], [5.431686500000069, 50.71980299900008], [5.687622, 50.811923999000044], [5.682000500000072, 50.75744649900008], [5.769941927000048, 50.74665214700008]]]]}}, {"type": "Feature", "properties": {"NUTS_ID": "BE34", "LEVL_CODE": 2, "CNTR_CODE": "BE", "NAME_LATN": "Prov. Luxembourg (BE)", "NUTS_NAME": "Prov. Luxembourg (BE)", "MOUNT_TYPE": 0, "URBN_TYPE": 0, "COAST_TYPE": 0, "NAME_ENGL": "Belgium", "NAME_FREN": "Belgique", "ISO3_CODE": "BEL", "SVRG_UN": "UN Member State", "CAPT": "Brussels", "EU_STAT": "T", "EFTA_STAT": "F", "CC_STAT": "F", "NAME_GERM": "Belgien"}, "geometry": {"type": "MultiPolygon", "coordinates": [[[[5.712898591000055, 50.35121318400007], [5.721549500000037, 50.26198949900004], [5.836915979000025, 50.26916694800008], [5.875517068000022, 50.34120093300004], [5.980197500000031, 50.32985299900008], [6.011873541000057, 50.291266850000056], [6.02489950000006, 50.18277949900005], [5.901236449000066, 50.108460293000064], [5.868830156000058, 50.047352903000046], [5.775859837000041, 49.94787296800007], [5.746319, 49.85359499900005], [5.758952342000043, 49.801697051000076], [5.871447311000054, 49.715090101000044], [5.899069892000057, 49.657414507000055], [5.860815182000067, 49.57352384100005], [5.818117, 49.54631049900007], [5.734556, 49.545690499000045], [5.470883, 49.49723799900005], [5.393511, 49.61711099900003], [5.319951273000072, 49.62127964600006], [5.290618184000039, 49.67984757600004], [5.153738500000031, 49.717925999000045], [4.969431, 49.80182599900007], [5.097226115000069, 49.93038618700007], [5.084152624000069, 49.96752911800007], [5.002044375000025, 50.00292492800003], [5.028074854000067, 50.047352903000046], [5.081314433000045, 50.091391927000075], [5.263063500000044, 50.10848999900003], [5.246306017000052, 50.217160662000026], [5.383693771000026, 50.28763409600003], [5.393235, 50.37936399900008], [5.425083758000028, 50.41885468500004], [5.675838500000054, 50.36851499900007], [5.712898591000055, 50.35121318400007]]]]}}, {"type": "Feature", "properties": {"NUTS_ID": "BE35", "LEVL_CODE": 2, "CNTR_CODE": "BE", "NAME_LATN": "Prov. Namur", "NUTS_NAME": "Prov. Namur", "MOUNT_TYPE": 0, "URBN_TYPE": 0, "COAST_TYPE": 0, "NAME_ENGL": "Belgium", "NAME_FREN": "Belgique", "ISO3_CODE": "BEL", "SVRG_UN": "UN Member State", "CAPT": "Brussels", "EU_STAT": "T", "EFTA_STAT": "F", "CC_STAT": "F", "NAME_GERM": "Belgien"}, "geometry": {"type": "MultiPolygon", "coordinates": [[[[5.221259500000031, 50.41729749900003], [5.302947242000073, 50.37396019200003], [5.393235, 50.37936399900008], [5.383693771000026, 50.28763409600003], [5.246306017000052, 50.217160662000026], [5.263063500000044, 50.10848999900003], [5.081314433000045, 50.091391927000075], [5.028074854000067, 50.047352903000046], [5.002044375000025, 50.00292492800003], [5.084152624000069, 49.96752911800007], [5.097226115000069, 49.93038618700007], [4.969431, 49.80182599900007], [4.864433605000045, 49.81149099400005], [4.878603489000056, 49.91254660900006], [4.801696917000072, 49.96533177800006], [4.835768158000064, 50.047352903000046], [4.869070423000039, 50.14438244300004], [4.796697, 50.14867799900003], [4.697388444000069, 50.085044468000035], [4.695205733000023, 50.047352903000046], [4.677657750000037, 49.996282164000036], [4.432494, 49.94161599900008], [4.378275048000035, 50.14747612900004], [4.384901812000066, 50.21875380300003], [4.331408906000036, 50.25790703200005], [4.474987, 50.32760999900006], [4.588662500000055, 50.321315999000035], [4.607538956000042, 50.411931432000074], [4.577538, 50.54228599900006], [4.671892992000039, 50.59673421300005], [4.983341, 50.642242499000076], [5.028495, 50.58882149900006], [5.063287081000055, 50.536572112000044], [5.202831175000028, 50.466380067000046], [5.221259500000031, 50.41729749900003]]]]}}]}